[{"OBJECT_NAME":"GEOSCAN 4 (RS92S4)","OBJECT_ID":"2025-155S","EPOCH":"2026-03-09T21:50:07.724832","MEAN_MOTION":15.30369837,"ECCENTRICITY":0.00070968,"INCLINATION":97.4465,"RA_OF_ASC_NODE":37.7626,"ARG_OF_PERICENTER":154.7045,"MEAN_ANOMALY":205.4544,"EPHEMERIS_TYPE":0,"CLASSIFICATION_TYPE":"U","NORAD_CAT_ID":64892,"ELEMENT_SET_NO":999,"REV_AT_EPOCH":6562,"BSTAR":0.00068609503,"MEAN_MOTION_DOT":0.00020121,"MEAN_MOTION_DDOT":0},{"OBJECT_NAME":"STARLINK-35801","OBJECT_ID":"2025-247A","EPOCH":"2026-03-09T14:22:20.780832","MEAN_MOTION":15.30184206,"ECCENTRICITY":0.0001055,"INCLINATION":53.1592,"RA_OF_ASC_NODE":191.5943,"ARG_OF_PERICENTER":47.6791,"MEAN_ANOMALY":312.4299,"EPHEMERIS_TYPE":0,"CLASSIFICATION_TYPE":"U","NORAD_CAT_ID":66265,"ELEMENT_SET_NO":999,"REV_AT_EPOCH":2102,"BSTAR":0.00065932,"MEAN_MOTION_DOT":0.00019209,"MEAN_MOTION_DDOT":0}]
